{
    "links": {
        "self": "http://www.neowsapp.com/rest/v1/neo/3986810?api_key=iIulBulltgU6a56xZRHN4H3l9WmuAYTsLGpBGhQ2"
    },
    "id": "3986810",
    "neo_reference_id": "3986810",
    "name": "(2020 BK2)",
    "designation": "2020 BK2",
    "nasa_jpl_url": "http://ssd.jpl.nasa.gov/sbdb.cgi?sstr=3986810",
    "absolute_magnitude_h": 21.728,
    "estimated_diameter": {
        "kilometers": {
            "estimated_diameter_min": 0.1199374957,
            "estimated_diameter_max": 0.2681883935
        },
        "meters": {
            "estimated_diameter_min": 119.9374957269,
            "estimated_diameter_max": 268.1883934965
        },
        "miles": {
            "estimated_diameter_min": 0.0745256817,
            "estimated_diameter_max": 0.1666444903
        },
        "feet": {
            "estimated_diameter_min": 393.4957334807,
            "estimated_diameter_max": 879.883208919
        }
    },
    "is_potentially_hazardous_asteroid": false,
    "close_approach_data": [
        {
            "close_approach_date": "2020-01-02",
            "close_approach_date_full": "2020-Jan-02 04:59",
            "epoch_date_close_approach": 1577941140000,
            "relative_velocity": {
                "kilometers_per_second": "20.4292473629",
                "kilometers_per_hour": "73545.2905063147",
                "miles_per_hour": "45698.1834259932"
            },
            "miss_distance": {
                "astronomical": "0.160088318",
                "lunar": "62.274355702",
                "kilometers": "23948871.38468266",
                "miles": "14881138.630874308"
            },
            "orbiting_body": "Earth"
        }
    ],
    "orbital_data": {
        "orbit_id": "1",
        "orbit_determination_date": "2020-01-21 14:42:02",
        "first_observation_date": "2020-01-19",
        "last_observation_date": "2020-01-21",
        "data_arc_in_days": 2,
        "observations_used": 33,
        "orbit_uncertainty": "9",
        "minimum_orbit_intersection": ".0656965",
        "jupiter_tisserand_invariant": "4.104",
        "epoch_osculation": "2458868.5",
        "eccentricity": ".4295292524722717",
        "semi_major_axis": "1.617186032753925",
        "inclination": "28.35395320736879",
        "ascending_node_longitude": "98.38653825767739",
        "orbital_period": "751.1702847989427",
        "perihelion_distance": ".9225573249965331",
        "perihelion_argument": "304.6459521372909",
        "aphelion_distance": "2.311814740511318",
        "perihelion_time": "2458811.026090759225",
        "mean_anomaly": "27.54449656141153",
        "mean_motion": ".4792521846046628",
        "equinox": "J2000",
        "orbit_class": {
            "orbit_class_type": "APO",
            "orbit_class_description": "Near-Earth asteroid orbits which cross the Earth’s orbit similar to that of 1862 Apollo",
            "orbit_class_range": "a (semi-major axis) > 1.0 AU; q (perihelion) < 1.017 AU"
        }
    },
    "is_sentry_object": false
}